BEIDOU-2 G8             
1 44231U 19027A   26162.65174674 -.00000231  00000+0  00000+0 0  9995
2 44231   1.6427  74.5030 0010326 283.1835 281.4770  1.00272957 26029
COSMOS 2534 [GLONASS-M] 
1 44299U 19030A   26162.46758321  .00000121  00000+0  00000+0 0  9996
2 44299  64.3681 192.8091 0013354 275.1032 156.1197  2.13102304 54807
BEIDOU-3 IGSO-2         
1 44337U 19035A   26161.99583588 -.00000037  00000+0  00000+0 0  9999
2 44337  55.2455 158.9168 0039933 216.3389   2.4216  1.00268507 25603
NAVSTAR 78 (USA 293)    
1 44506U 19056A   26161.92223289 -.00000063  00000+0  00000+0 0  9991
2 44506  55.6404 331.3920 0061745 197.5539 346.1380  2.00569440 49949
BEIDOU-3 M24            
1 44542U 19061A   26162.33598668  .00000129  00000+0  00000+0 0  9991
2 44542  54.3962 182.9254 0008267 358.9131   1.1499  1.86229258 45684
BEIDOU-3 M23            
1 44543U 19061B   26162.20259154  .00000129  00000+0  00000+0 0  9992
2 44543  54.3946 182.8982 0005609 337.6908 204.5715  1.86227378 45688
EUTELSAT 5 WEST B       
1 44624U 19067A   26162.33704206 -.00000025  00000+0  00000+0 0  9991
2 44624   0.0627 352.9367 0003000  87.2010 295.8971  1.00271900 24370
BEIDOU-3 IGSO-3         
1 44709U 19073A   26136.81046384 -.00000217  00000+0  00000+0 0  9995
2 44709  54.8566 281.2355 0042953 189.4588 170.3676  1.00246251 24144
BEIDOU-3 M22            
1 44793U 19078A   26160.56479635 -.00000061  00000+0  00000+0 0  9998
2 44793  53.9433 300.0965 0006476  49.2798 310.7668  1.86227604 44501
BEIDOU-3 M21            
1 44794U 19078B   26159.63081975 -.00000059  00000+0  00000+0 0  9998
2 44794  53.9173 300.0906 0004394  47.4319 312.5973  1.86228036 44491
COSMOS 2544 [GLONASS-M] 
1 44850U 19088A   26160.99045334 -.00000023  00000+0  00000+0 0  9993
2 44850  65.5614  73.9710 0013431 259.4785 100.3880  2.13102164 50565
BEIDOU-3 M19            
1 44864U 19090A   26162.31127829 -.00000054  00000+0  00000+0 0  9993
2 44864  56.5531  62.9856 0018030 297.6207 256.7794  1.86231661 44129
BEIDOU-3 M20            
1 44865U 19090B   26161.09867501 -.00000050  00000+0  00000+0 0  9992
2 44865  56.5539  63.0605 0015925 311.2740 239.7297  1.86231666 44086
BEIDOU-3 G2             
1 45344U 20017A   26162.63907954 -.00000126  00000+0  00000+0 0  9998
2 45344   2.8520  47.2486 0002324  31.4900 131.3790  1.00272993 23202
COSMOS 2545 [GLONASS-M] 
1 45358U 20018A   26162.12399718 -.00000043  00000+0  00000+0 0  9999
2 45358  64.3587 312.6323 0008122 231.2557 128.6643  2.13102646 48533
BEIDOU-3 G3             
1 45807U 20040A   26162.65926987 -.00000338  00000+0  00000+0 0  9992
2 45807   2.4324  67.4380 0002618 337.6843 202.7876  1.00269904 22018
NAVSTAR 79 (USA 304)    
1 45854U 20041A   26161.50914235 -.00000064  00000+0  00000+0 0  9997
2 45854  56.6651  29.2031 0063585 204.6514 339.4495  2.00558724 43909
GALAXY 30 (G-30)        
1 46114U 20056C   26162.40739412  .00000053  00000+0  00000+0 0  9992
2 46114   0.0017 357.0112 0001944  77.5372 206.8848  1.00273404 21239
COSMOS 2547 [GLONASS-K] 
1 46805U 20075A   26162.31350737  .00000121  00000+0  00000+0 0  9995
2 46805  64.5991 192.6716 0009249 239.6437 120.3411  2.13100304 43787
NAVSTAR 80 (USA 309)    
1 46826U 20078A   26162.28420613  .00000085  00000+0  00000+0 0  9997
2 46826  53.9805 211.0184 0073334 207.0647 152.7945  2.00564772 41394
NAVSTAR 81 (USA 319)    
1 48859U 21054A   26162.49856855 -.00000066  00000+0  00000+0 0  9994
2 48859  55.1774 332.6886 0025307 228.5338 112.3097  2.00569194 36636
QZS-1R (MICHIBIKI-1R)   
1 49336U 21096A   26161.65003756 -.00000241  00000+0  00000+0 0  9997
2 49336  37.4481  79.6817 0754393 271.6562 276.0833  1.00257812 16947
GSAT0223 (GALILEO 27)   
1 49809U 21116A   26162.13215269 -.00000065  00000+0  00000+0 0  9997
2 49809  57.1623 341.8389 0001404 187.4451 176.2704  1.70475860 28084
GSAT0224 (GALILEO 28)   
1 49810U 21116B   26162.53111728 -.00000066  00000+0  00000+0 0  9999
2 49810  57.1633 341.8270 0000988 155.4898 205.7028  1.70475859 28111
COSMOS 2557 [GLONASS-K] 
1 52984U 22075A   26160.13153051 -.00000034  00000+0  00000+0 0  9994
2 52984  64.3021 314.7692 0010229 275.2232  84.6583  2.13102144 30549
COSMOS 2559 [GLONASS-K] 
1 54031U 22130A   26161.35892150 -.00000039  00000+0  00000+0 0  9991
2 54031  64.2757 314.8093 0012427 178.3735 181.6269  2.13101643 28547
COSMOS 2564 [GLONASS-M] 
1 54377U 22161A   26162.14075417  .00000120  00000+0  00000+0 0  9995
2 54377  64.7412 192.9125 0012115 224.4932 135.4856  2.13102011 27504
NAVSTAR 82 (USA 343)    
1 55268U 23009A   26158.73659273  .00000105  00000+0  00000+0 0  9998
2 55268  55.1217 148.8905 0006217 315.6663 226.9396  2.00572207 25054
BEIDOU-3 G4             
1 56564U 23066A   26161.36764115 -.00000265  00000+0  00000+0 0  9994
2 56564   0.4953 329.6081 0004397 171.1303  30.2733  1.00265779 11329
NVS-01 (IRNSS-1J)       
1 56759U 23076A   26162.57749742 -.00000317  00000+0  00000+0 0  9992
2 56759   2.1800 244.6164 0003108  38.1889 314.5701  1.00267598 11057
COSMOS 2569 [GLONASS-K2]
1 57517U 23114A   26162.15306544 -.00000030  00000+0  00000+0 0  9993
2 57517  65.2988  72.8239 0010903 296.8975  63.0089  2.13103655 22135
