OBJECT_NAME,OBJECT_ID,EPOCH,MEAN_MOTION,ECCENTRICITY,INCLINATION,RA_OF_ASC_NODE,ARG_OF_PERICENTER,MEAN_ANOMALY,EPHEMERIS_TYPE,CLASSIFICATION_TYPE,NORAD_CAT_ID,ELEMENT_SET_NO,REV_AT_EPOCH,BSTAR,MEAN_MOTION_DOT,MEAN_MOTION_DDOT
BEIDOU-2 G8 (C01),2019-027A,2026-06-11T15:38:30.918336,1.00272957,.00103263,1.6427,74.5030,283.1835,281.4770,0,U,44231,999,2602,0,-.231E-5,0
COSMOS 2534 (758),2019-030A,2026-06-11T11:13:19.189344,2.13102304,.00133544,64.3681,192.8091,275.1032,156.1197,0,U,44299,999,5480,0,.121E-5,0
BEIDOU-3 IGSO-2 (C39),2019-035A,2026-06-10T23:54:00.220032,1.00268507,.0039933,55.2455,158.9168,216.3389,2.4216,0,U,44337,999,2560,0,-.37E-6,0
GPS BIII-2  (PRN 18),2019-056A,2026-06-10T22:08:00.921696,2.00569440,.00617455,55.6404,331.3920,197.5539,346.1380,0,U,44506,999,4994,0,-.63E-6,0
BEIDOU-3 M24 (C46),2019-061A,2026-06-11T08:03:49.249152,1.86229258,.00082672,54.3962,182.9254,358.9131,1.1499,0,U,44542,999,4568,0,.129E-5,0
BEIDOU-3 M23 (C45),2019-061B,2026-06-11T04:51:43.909056,1.86227378,.00056091,54.3946,182.8982,337.6908,204.5715,0,U,44543,999,4568,0,.129E-5,0
EUTELSAT 5 WEST B (EGNOS/PRN 121),2019-067A,2026-06-11T08:05:20.433984,1.00271900,.00030004,0.0627,352.9367,87.2010,295.8971,0,U,44624,999,2437,0,-.25E-6,0
BEIDOU-3 IGSO-3 (C40),2019-073A,2026-05-16T19:27:04.075776,1.00246251,.0042953,54.8566,281.2355,189.4588,170.3676,0,U,44709,999,2414,0,-.217E-5,0
BEIDOU-3 M22 (C44),2019-078A,2026-06-09T13:33:18.404640,1.86227604,.0006476,53.9433,300.0965,49.2798,310.7668,0,U,44793,999,4450,0,-.61E-6,0
BEIDOU-3 M21 (C43),2019-078B,2026-06-08T15:08:22.826400,1.86228036,.00043947,53.9173,300.0906,47.4319,312.5973,0,U,44794,999,4449,0,-.59E-6,0
COSMOS 2544 (759),2019-088A,2026-06-09T23:46:15.168576,2.13102164,.00134315,65.5614,73.9710,259.4785,100.3880,0,U,44850,999,5056,0,-.23E-6,0
BEIDOU-3 M19 (C41),2019-090A,2026-06-11T07:28:14.444256,1.86231661,.00180305,56.5531,62.9856,297.6207,256.7794,0,U,44864,999,4412,0,-.54E-6,0
BEIDOU-3 M20 (C42),2019-090B,2026-06-10T02:22:05.520864,1.86231666,.00159258,56.5539,63.0605,311.2740,239.7297,0,U,44865,999,4408,0,-.5E-6,0
BEIDOU-3 G2 (C60),2020-017A,2026-06-11T15:20:16.472256,1.00272993,.00023247,2.8520,47.2486,31.4900,131.3790,0,U,45344,999,2320,0,-.126E-5,0
COSMOS 2545 (760),2020-018A,2026-06-11T02:58:33.356352,2.13102646,.00081223,64.3587,312.6323,231.2557,128.6643,0,U,45358,999,4853,0,-.43E-6,0
BEIDOU-3 G3 (C61),2020-040A,2026-06-11T15:49:20.916768,1.00269904,.00026186,2.4324,67.4380,337.6843,202.7876,0,U,45807,999,2201,0,-.338E-5,0
GPS BIII-3  (PRN 23),2020-041A,2026-06-10T12:13:09.899040,2.00558724,.00635858,56.6651,29.2031,204.6514,339.4495,0,U,45854,999,4390,0,-.64E-6,0
GALAXY 30 (WAAS/PRN 135),2020-056C,2026-06-11T09:46:38.851968,1.00273404,.0001944,0.0017,357.0112,77.5372,206.8848,0,U,46114,999,2123,0,.53E-6,0
COSMOS 2547 (705K),2020-075A,2026-06-11T07:31:27.036768,2.13100304,.00092491,64.5991,192.6716,239.6437,120.3411,0,U,46805,999,4378,0,.121E-5,0
GPS BIII-4  (PRN 14),2020-078A,2026-06-11T06:49:15.409632,2.00564772,.0073334,53.9805,211.0184,207.0647,152.7945,0,U,46826,999,4139,0,.85E-6,0
GPS BIII-5  (PRN 11),2021-054A,2026-06-11T11:57:56.322720,2.00569194,.00253073,55.1774,332.6886,228.5338,112.3097,0,U,48859,999,3663,0,-.66E-6,0
QZS-1R (QZSS/PRN 196),2021-096A,2026-06-10T15:36:03.245184,1.00257812,.07543935,37.4481,79.6817,271.6562,276.0833,0,U,49336,999,1694,0,-.241E-5,0
GSAT0223 (GALILEO 27),2021-116A,2026-06-11T03:10:17.992416,1.70475860,.00014044,57.1623,341.8389,187.4451,176.2704,0,U,49809,999,2808,0,-.65E-6,0
GSAT0224 (GALILEO 28),2021-116B,2026-06-11T12:44:48.532992,1.70475859,.00009882,57.1633,341.8270,155.4898,205.7028,0,U,49810,999,2811,0,-.66E-6,0
COSMOS 2557 (706K),2022-075A,2026-06-09T03:09:24.236064,2.13102144,.00102294,64.3021,314.7692,275.2232,84.6583,0,U,52984,999,3054,0,-.34E-6,0
COSMOS 2559 (707K),2022-130A,2026-06-10T08:36:50.817600,2.13101643,.00124272,64.2757,314.8093,178.3735,181.6269,0,U,54031,999,2854,0,-.39E-6,0
COSMOS 2564 (761),2022-161A,2026-06-11T03:22:41.160288,2.13102011,.00121159,64.7412,192.9125,224.4932,135.4856,0,U,54377,999,2750,0,.12E-5,0
GPS BIII-6  (PRN 28),2023-009A,2026-06-07T17:40:41.611872,2.00572207,.00062176,55.1217,148.8905,315.6663,226.9396,0,U,55268,999,2505,0,.105E-5,0
BEIDOU-3 G4 (C62),2023-066A,2026-06-10T08:49:24.195360,1.00265779,.00043973,0.4953,329.6081,171.1303,30.2733,0,U,56564,999,1132,0,-.265E-5,0
NVS-01 (IRNSS-1J),2023-076A,2026-06-11T13:51:35.777088,1.00267598,.0003108,2.1800,244.6164,38.1889,314.5701,0,U,56759,999,1105,0,-.317E-5,0
COSMOS 2569 (703K),2023-114A,2026-06-11T03:40:24.854016,2.13103655,.00109032,65.2988,72.8239,296.8975,63.0089,0,U,57517,999,2213,0,-.3E-6,0
